NORAD_CAT_ID,OBJECT_NAME,OBJECT_TYPE,EPOCH,MEAN_MOTION,ECCENTRICITY,INCLINATION,RA_OF_ASC_NODE,ARG_OF_PERICENTER,MEAN_ANOMALY,BSTAR,MEAN_MOTION_DOT,MEAN_MOTION_DDOT,TLE_LINE0,TLE_LINE1,TLE_LINE2,SEMIMAJOR_AXIS,PERIOD,APOGEE,PERIGEE,DECAYED
49180.0,STARLINK-3050,PAYLOAD,2021-09-29 14:00:01,15.69759104,0.0003362,70.0027,83.3268,268.3129,30.0748,-0.00023438,-0.00028109,0.0,0 STARLINK-3050,1 49180U 21082BC  21272.58334491 -.00028109  00000-0 -23438-3 0  9991,2 49180  70.0027  83.3268 0003362 268.3129  30.0748 15.69759104  3704,6737.723000000001,91.734,361.853,357.3230000000001,0.0
49180.0,STARLINK-3050,PAYLOAD,2021-09-29 22:00:01,15.69706008,0.0003814,70.0024,82.3898,274.6162,106.8989,0.00056346,0.00067479,0.0,0 STARLINK-3050,1 49180U 21082BC  21272.91668981  .00067479  00000-0  56346-3 0  9997,2 49180  70.0024  82.3898 0003814 274.6162 106.8989 15.69706008  3757,6737.875,91.737,362.31,357.17,0.0
49180.0,STARLINK-3050,PAYLOAD,2021-09-30 14:00:01,15.697885199999998,0.000382,70.0029,80.5165,269.1908,278.4881,-0.0001311,-0.0001585999999999,0.0,0 STARLINK-3050,1 49180U 21082BC  21273.58334491 -.00015860  00000-0 -13110-3 0  9998,2 49180  70.0029  80.5165 0003820 269.1908 278.4881 15.69788520  3850,6737.639,91.732,362.078,356.93,0.0
49180.0,STARLINK-3050,PAYLOAD,2021-10-01 14:00:01,15.69790725,0.0003697,70.0024,77.7056,269.744,167.3722,-0.00021208,-0.00025498,0.0,0 STARLINK-3050,1 49180U 21082BC  21274.58334491 -.00025498  00000-0 -21208-3 0  9994,2 49180  70.0024  77.7056 0003697 269.7440 167.3722 15.69790725  3097,6737.6330000000025,91.732,361.989,357.00699999999995,0.0
49180.0,STARLINK-3050,PAYLOAD,2021-10-01 22:00:00,15.69783513,0.0003526,70.0021,76.7688,275.6905,244.5837,-0.00038356,-0.00045817,0.0,0 STARLINK-3050,1 49180U 21082BC  21274.91667824 -.00045817  00000-0 -38356-3 0  9999,2 49180  70.0021  76.7688 0003526 275.6905 244.5837 15.69783513  4067,6737.653,91.732,361.894,357.14300000000014,0.0
49180.0,STARLINK-3050,PAYLOAD,2021-10-02 06:00:00,15.698725199999998,0.000344,70.0009,75.8278,270.795,332.5409,-0.0042777,-0.00484949,0.0,0 STARLINK-3050,1 49180U 21082BC  21275.25001157 -.00484949  00000-0 -42777-2 0  9992,2 49180  70.0009  75.8278 0003440 270.7950 332.5409 15.69872520  4126,6737.399,91.727,361.581,356.946,0.0
49180.0,STARLINK-3050,PAYLOAD,2021-10-02 14:00:01,15.69808611,0.0003553,70.0028,74.8951,271.2142,55.2366,-0.00071454,-0.00084866,0.0,0 STARLINK-3050,1 49180U 21082BC  21275.58334491 -.00084866  00000-0 -71454-3 0  9997,2 49180  70.0028  74.8951 0003553 271.2142  55.2366 15.69808611  4174,6737.581999999999,91.731,361.84,357.05300000000005,0.0
49180.0,STARLINK-3050,PAYLOAD,2021-10-02 22:00:00,15.69717725,0.0003742,70.0022,73.958,276.1899,133.4236,0.00024547,0.00029157,0.0,0 STARLINK-3050,1 49180U 21082BC  21275.91667824  .00029157  00000-0  24547-3 0  9994,2 49180  70.0022  73.9580 0003742 276.1899 133.4236 15.69717725  3303,6737.842,91.736,362.228,357.185,0.0
49180.0,STARLINK-3050,PAYLOAD,2021-10-03 06:00:00,15.69697385,0.0003765,70.0014,73.0203,270.5533,222.1722,0.00070607,0.00084755,0.0,0 STARLINK-3050,1 49180U 21082BC  21276.25001157  .00084755  00000-0  70607-3 0  9996,2 49180  70.0014  73.0203 0003765 270.5533 222.1722 15.69697385  4277,6737.9,91.737,362.302,357.228,0.0
49180.0,STARLINK-3050,PAYLOAD,2021-10-03 14:00:01,15.69928938,0.0003605,70.0013,72.0808,268.327,307.4653,-0.0037232,-0.00426064,0.0,0 STARLINK-3050,1 49180U 21082BC  21276.58334491 -.00426064  00000-0 -37232-2 0  9993,2 49180  70.0013  72.0808 0003605 268.3270 307.4653 15.69928938  3418,6737.236999999999,91.724,361.531,356.6740000000001,0.0
49180.0,STARLINK-3050,PAYLOAD,2021-10-03 22:00:01,15.69768447,0.0003651,70.002,71.1471,277.1628,21.8692,-0.00045911,-0.0005471,0.0,0 STARLINK-3050,1 49180U 21082BC  21276.91668981 -.00054710  00000-0 -45911-3 0  9993,2 49180  70.0020  71.1471 0003651 277.1628  21.8692 15.69768447  4382,6737.696999999999,91.733,362.021,357.102,0.0
49180.0,STARLINK-3050,PAYLOAD,2021-10-04 14:00:01,15.69767367,0.0003571,70.0028,69.2735,273.3407,191.8563,-0.00016931,-0.00020391,0.0,0 STARLINK-3050,1 49180U 21082BC  21277.58334491 -.00020391  00000-0 -16931-3 0  9991,2 49180  70.0028  69.2735 0003571 273.3407 191.8563 15.69767367  4481,6737.7,91.733,361.971,357.159,0.0
49180.0,STARLINK-3050,PAYLOAD,2021-10-04 22:00:00,15.69752013,0.0003597,70.0024,68.3363,277.2825,271.0448,0.00027798,0.00033108,0.0,0 STARLINK-3050,1 49180U 21082BC  21277.91667824  .00033108  00000-0  27798-3 0  9998,2 49180  70.0024  68.3363 0003597 277.2825 271.0448 15.69752013  3629,6737.744000000002,91.734,362.032,357.185,0.0
49180.0,STARLINK-3050,PAYLOAD,2021-10-05 06:00:00,15.69755133,0.0003502,70.0026,67.3994,271.4927,359.9862,0.00012072,0.00014227,0.0,0 STARLINK-3050,1 49180U 21082BC  21278.25001157  .00014227  00000-0  12072-3 0  9997,2 49180  70.0026  67.3994 0003502 271.4927 359.9862 15.69755133  4594,6737.735,91.734,361.959,357.24,0.0
49180.0,STARLINK-3050,PAYLOAD,2021-10-05 14:00:01,15.69754291,0.0003427,70.0025,66.4617,273.6794,80.9471,-0.00030843,-0.00036878,0.0,0 STARLINK-3050,1 49180U 21082BC  21278.58334491 -.00036878  00000-0 -30843-3 0  9997,2 49180  70.0025  66.4617 0003427 273.6794  80.9471 15.69754291  3733,6737.736999999999,91.734,361.911,357.293,0.0
49180.0,STARLINK-3050,PAYLOAD,2021-10-05 22:00:01,15.69741504,0.000336,70.0015,65.5256,279.4852,158.3239,0.00024009,0.00028537,0.0,0 STARLINK-3050,1 49180U 21082BC  21278.91668981  .00028537  00000-0  24009-3 0  9996,2 49180  70.0015  65.5256 0003360 279.4852 158.3239 15.69741504  4697,6737.774,91.735,361.902,357.375,0.0
49180.0,STARLINK-3050,PAYLOAD,2021-10-06 14:00:01,15.69821375,0.0003515,70.0012,63.651,274.4007,329.6648,-0.00092726,-0.001098,0.0,0 STARLINK-3050,1 49180U 21082BC  21279.58335648 -.00109800  00000-0 -92726-3 0  9997,2 49180  70.0012  63.6510 0003515 274.4007 329.6648 15.69821375  3775,6737.545,91.73,361.778,357.042,0.0
49180.0,STARLINK-3050,PAYLOAD,2021-10-06 22:00:00,15.69932384,0.0003827,70.0004,62.7112,277.6977,49.4372,-0.0049957,-0.00562649,0.0,0 STARLINK-3050,1 49180U 21082BC  21279.91667824 -.00562649  00000-0 -49957-2 0  9999,2 49180  70.0004  62.7112 0003827 277.6977  49.4372 15.69932384  4855,6737.227,91.724,361.671,356.514,0.0
49180.0,STARLINK-3050,PAYLOAD,2021-10-07 06:00:00,15.69717775,0.0003636,70.0012,61.7779,272.3414,137.9891,0.0009041,0.00108991,0.0,0 STARLINK-3050,1 49180U 21082BC  21280.25001157  .00108991  00000-0  90410-3 0  9994,2 49180  70.0012  61.7779 0003636 272.3414 137.9891 15.69717775  4908,6737.842,91.736,362.156,357.25699999999995,0.0
49180.0,STARLINK-3050,PAYLOAD,2021-10-07 14:00:01,15.698299100000002,0.0003521,70.0012,60.8413,275.7922,217.6603,-0.0010597999999999,-0.0012528,0.0,0 STARLINK-3050,1 49180U 21082BC  21280.58334491 -.00125280  00000-0 -10598-2 0  9990,2 49180  70.0012  60.8413 0003521 275.7922 217.6603 15.69829910  3706,6737.521,91.73,361.758,357.01300000000015,0.0
49180.0,STARLINK-3050,PAYLOAD,2021-10-07 22:00:00,15.69737635,0.0003215,70.0008,59.9043,281.1365,295.4932,-0.0011639,-0.00136844,0.0,0 STARLINK-3050,1 49180U 21082BC  21280.91667824 -.00136844  00000-0 -11639-2 0  9991,2 49180  70.0008  59.9043 0003215 281.1365 295.4932 15.69737635  5018,6737.785,91.735,361.816,357.483,0.0
49180.0,STARLINK-3050,PAYLOAD,2021-10-08 08:00:03,15.69627265,0.0002981,70.0014,58.7331,273.7016,136.8561,0.00060087,0.00071766,0.0,0 STARLINK-3050,1 49180U 21082BC  21281.33336806  .00071766  00000-0  60087-3 0  9992,2 49180  70.0014  58.7331 0002981 273.7016 136.8561 15.69627265  5070,6738.101,91.742,361.974,357.957,0.0
49180.0,STARLINK-3050,PAYLOAD,2021-10-08 14:00:01,15.69676021,0.0003111,70.0019,58.0305,277.2571,105.4235,-4.5849e-05,-5.664e-05,0.0,0 STARLINK-3050,1 49180U 21082BC  21281.58334491 -.00005664  00000-0 -45849-4 0  9993,2 49180  70.0019  58.0305 0003111 277.2571 105.4235 15.69676021  3702,6737.9609999999975,91.739,361.922,357.73,0.0
49180.0,STARLINK-3050,PAYLOAD,2021-10-08 22:00:00,15.69685177,0.0003188,70.0016,57.0937,281.5162,184.1891,0.00078411,0.00094197,0.0,0 STARLINK-3050,1 49180U 21082BC  21281.91667824  .00094197  00000-0  78411-3 0  9996,2 49180  70.0016  57.0937 0003188 281.5162 184.1891 15.69685177  5163,6737.935,91.738,361.948,357.652,0.0
49180.0,STARLINK-3050,PAYLOAD,2021-10-09 06:00:00,15.69718047,0.0003284,70.0017,56.1571,274.4265,274.3773,0.00083495,0.00100532,0.0,0 STARLINK-3050,1 49180U 21082BC  21282.25001157  .00100532  00000-0  83495-3 0  9994,2 49180  70.0017  56.1571 0003284 274.4265 274.3773 15.69718047  3702,6737.840999999999,91.736,361.918,357.49300000000005,0.0
49180.0,STARLINK-3050,PAYLOAD,2021-10-09 14:00:01,15.69781195,0.0003376,70.0017,55.2204,278.5349,353.4664,-7.8147e-05,-9.543e-05,0.0,0 STARLINK-3050,1 49180U 21082BC  21282.58335648 -.00009543  00000-0 -78147-4 0  9996,2 49180  70.0017  55.2204 0003376 278.5349 353.4664 15.69781195  5271,6737.66,91.733,361.8,357.25,0.0
49180.0,STARLINK-3050,PAYLOAD,2021-10-09 22:00:00,15.69793372,0.0003455,70.0013,54.2834,282.3508,72.735,1.7281e-06,-6e-08,0.0,0 STARLINK-3050,1 49180U 21082BC  21282.91667824 -.00000006  00000-0  17281-5 0  9994,2 49180  70.0013  54.2834 0003455 282.3508  72.7350 15.69793372  3702,6737.625,91.732,361.818,357.162,0.0
49180.0,STARLINK-3050,PAYLOAD,2021-10-10 14:00:01,15.69774237,0.0003289,70.0019,52.4095,279.9627,241.5034,-0.00014666,-0.00017701,0.0,0 STARLINK-3050,1 49180U 21082BC  21283.58334491 -.00017701  00000-0 -14666-3 0  9992,2 49180  70.0019  52.4095 0003289 279.9627 241.5034 15.69774237  5421,6737.68,91.733,361.761,357.329,0.0
49180.0,STARLINK-3050,PAYLOAD,2021-10-10 22:00:01,15.69810587,0.0003268,70.0015,51.4723,282.3911,322.2756,-0.00067869,-0.0008066,0.0,0 STARLINK-3050,1 49180U 21082BC  21283.91668981 -.00080660  00000-0 -67869-3 0  9990,2 49180  70.0015  51.4723 0003268 282.3911 322.2756 15.69810587  3712,6737.576,91.731,361.643,357.23900000000015,0.0
